     2              NAVIGATION DATA                         RINEX VERSION / TYPE
CCRINEXN V1.6.0 UX  CDDIS               06-JAN-12 15:33     PGM / RUN BY / DATE 
IGS BROADCAST EPHEMERIS FILE                                COMMENT             
    0.1676D-07 -0.7451D-08 -0.5960D-07  0.1192D-06          ION ALPHA           
    0.1352D+06 -0.1802D+06  0.6554D+05  0.0000D+00          ION BETA            
    0.931322574616D-09 0.888178419700D-15   589824     1669 DELTA-UTC: A0,A1,T,W
    15                                                      LEAP SECONDS        
                                                            END OF HEADER       
15 12  1  5 10  0  0.0-0.952286645770D-04 0.795807864051D-12 0.000000000000D+00
    0.920000000000D+02 0.115156250000D+03 0.474484049879D-08 0.187961411866D+01
    0.601075589657D-05 0.419088429771D-02 0.465475022793D-05 0.515375196075D+04
    0.381600000000D+06-0.745058059692D-08-0.280799403595D+01 0.186264514923D-07
    0.947557393775D+00 0.282875000000D+03-0.165399156510D-01-0.831641784076D-08
    0.137148569931D-09 0.100000000000D+01 0.166900000000D+04 0.000000000000D+00
    0.200000000000D+01 0.000000000000D+00-0.102445483208D-07 0.920000000000D+02
    0.374400000000D+06 0.000000000000D+00 0.000000000000D+00 0.000000000000D+00
16 12  1  5 10  0  0.0-0.217375345528D-03-0.181898940355D-11 0.000000000000D+00
    0.660000000000D+02-0.862812500000D+02 0.393873549271D-08-0.271405345954D+01
   -0.438839197159D-05 0.629052694421D-02 0.916607677937D-05 0.515359452438D+04
    0.381600000000D+06-0.104308128357D-06-0.652931261939D+00-0.149011611938D-07
    0.979105220691D+00 0.214937500000D+03-0.804513642880D-01-0.758924469393D-08
    0.144648882349D-09 0.000000000000D+00 0.166900000000D+04 0.000000000000D+00
    0.200000000000D+01 0.000000000000D+00-0.977888703346D-08 0.660000000000D+02
    0.375450000000D+06 0.400000000000D+01 0.000000000000D+00 0.000000000000D+00
17 12  1  5 10  0  0.0 0.156579539180D-03-0.216004991671D-11 0.000000000000D+00
    0.970000000000D+02-0.418750000000D+01 0.459340561950D-08 0.263567506626D+01
   -0.283122062683D-06 0.697778572794D-02 0.791251659393D-05 0.515361577034D+04
    0.381600000000D+06-0.353902578354D-07 0.388020001128D+00-0.106170773506D-06
    0.962453592227D+00 0.227062500000D+03-0.237533610471D+01-0.780675375406D-08
    0.405374028313D-09 0.100000000000D+01 0.166900000000D+04 0.000000000000D+00
    0.280000000000D+01 0.000000000000D+00-0.107102096081D-07 0.970000000000D+02
    0.376350000000D+06 0.000000000000D+00 0.000000000000D+00 0.000000000000D+00
18 12  1  5 10  0  0.0 0.175268854946D-03 0.181898940355D-11 0.000000000000D+00
    0.104000000000D+03 0.534687500000D+02 0.478769942690D-08-0.220490648933D+01
    0.274367630482D-05 0.127436560579D-01 0.103544443846D-04 0.515366426659D+04
    0.381600000000D+06 0.763684511185D-07 0.246101539839D+01-0.143423676491D-06
    0.930908751126D+00 0.163625000000D+03-0.220157922699D+01-0.783068332225D-08
   -0.275368613065D-09 0.000000000000D+00 0.166900000000D+04 0.000000000000D+00
    0.200000000000D+01 0.000000000000D+00-0.111758708954D-07 0.104000000000D+03
    0.374400000000D+06 0.400000000000D+01 0.000000000000D+00 0.000000000000D+00
19 12  1  5 10  0  0.0-0.222430564463D-03-0.386535248253D-11 0.000000000000D+00
    0.105000000000D+03 0.687500000000D+00 0.481270046829D-08 0.182645863037D+01
    0.225380063057D-06 0.779688498005D-02 0.765174627304D-05 0.515373159790D+04
    0.381600000000D+06-0.931322574616D-08 0.441419144273D+00 0.219792127609D-06
    0.959839183532D+00 0.231500000000D+03 0.136706203985D+00-0.806533595362D-08
    0.331085219600D-09 0.100000000000D+01 0.166900000000D+04 0.000000000000D+00
    0.200000000000D+01 0.000000000000D+00-0.144354999065D-07 0.105000000000D+03
    0.378630000000D+06 0.000000000000D+00 0.000000000000D+00 0.000000000000D+00
20 12  1  5 10  0  0.0 0.594221055508D-04 0.795807864051D-12 0.000000000000D+00
    0.580000000000D+02 0.421250000000D+02 0.494556314541D-08-0.177338200068D+01
    0.217556953430D-05 0.506803218741D-02 0.943243503571D-05 0.515379963112D+04
    0.381600000000D+06 0.145286321640D-06 0.240720840978D+01 0.447034835815D-07
    0.931211526892D+00 0.183062500000D+03 0.126719795161D+01-0.806783605775D-08
   -0.405016870578D-09 0.100000000000D+01 0.166900000000D+04 0.000000000000D+00
    0.200000000000D+01 0.000000000000D+00-0.791624188423D-08 0.580000000000D+02
    0.374418000000D+06 0.400000000000D+01 0.000000000000D+00 0.000000000000D+00
21 12  1  5 10  0  0.0-0.195523258299D-03-0.261479726760D-11 0.000000000000D+00
    0.780000000000D+02-0.834375000000D+01 0.549880047568D-08-0.113880444753D+01
   -0.348314642906D-06 0.183760481887D-01 0.574626028538D-05 0.515365892410D+04
    0.381600000000D+06 0.426545739174D-06 0.140859041324D+01 0.210478901863D-06
    0.931011488937D+00 0.249093750000D+03-0.230595060680D+01-0.841713632180D-08
   -0.342871424828D-09 0.000000000000D+00 0.166900000000D+04 0.000000000000D+00
    0.200000000000D+01 0.000000000000D+00-0.111758708954D-07 0.780000000000D+02
    0.375000000000D+06 0.400000000000D+01 0.000000000000D+00 0.000000000000D+00
23 12  1  5 10  0  0.0 0.244624447078D-03-0.341060513165D-11 0.000000000000D+00
    0.600000000000D+01 0.982187500000D+02 0.437089635109D-08 0.135659945163D+01
    0.522285699844D-05 0.752556498628D-02 0.482238829136D-05 0.515369315338D+04
    0.381600000000D+06-0.409781932831D-07-0.277440503893D+01 0.134110450745D-06
    0.962197901942D+00 0.286562500000D+03-0.302887344190D+01-0.811283793226D-08
    0.510735559900D-10 0.100000000000D+01 0.166900000000D+04 0.000000000000D+00
    0.200000000000D+01 0.000000000000D+00-0.204890966415D-07 0.600000000000D+01
    0.374610000000D+06 0.400000000000D+01 0.000000000000D+00 0.000000000000D+00
25 12  1  5 10  0  0.0 0.308873131871D-04 0.227373675443D-12 0.000000000000D+00
    0.900000000000D+02-0.102468750000D+03 0.421874715632D-08-0.166947043358D+01
   -0.529550015926D-05 0.108455214649D-02 0.924989581108D-05 0.515378383064D+04
    0.381600000000D+06 0.279396772385D-07-0.703403130878D+00 0.372529029846D-08
    0.967005805616D+00 0.206125000000D+03 0.748988473073D+00-0.781353975101D-08
    0.140720147273D-09 0.000000000000D+00 0.166900000000D+04 0.000000000000D+00
    0.280000000000D+01 0.000000000000D+00 0.512227416039D-08 0.900000000000D+02
    0.374400000000D+06 0.400000000000D+01 0.000000000000D+00 0.000000000000D+00
26 12  1  5 10  0  0.0-0.287619419396D-03-0.140971678775D-10 0.000000000000D+00
    0.530000000000D+02 0.969062500000D+02 0.404838296220D-08 0.122152447299D+01
    0.487826764584D-05 0.205870611826D-01 0.477768480778D-05 0.515365571594D+04
    0.381600000000D+06-0.361353158951D-06-0.270476173829D+01-0.558793544769D-07
    0.985232816913D+00 0.304187500000D+03 0.116821003280D+01-0.826820123479D-08
    0.960754323320D-10 0.100000000000D+01 0.166900000000D+04 0.000000000000D+00
    0.200000000000D+01 0.000000000000D+00-0.605359673500D-08 0.530000000000D+02
    0.374418000000D+06 0.400000000000D+01 0.000000000000D+00 0.000000000000D+00
27 12  1  5 10  0  0.0 0.343095511198D-03 0.386535248253D-11 0.000000000000D+00
    0.690000000000D+02-0.501562500000D+02 0.414552969730D-08 0.217808673172D+01
   -0.268220901489D-05 0.219657006673D-01 0.118836760521D-05 0.515357009315D+04
    0.381600000000D+06 0.303611159325D-06-0.178041639546D+01 0.484287738800D-07
    0.981608705086D+00 0.365156250000D+03-0.115051355752D+01-0.786211362680D-08
   -0.261796612166D-09 0.100000000000D+01 0.166900000000D+04 0.000000000000D+00
    0.400000000000D+01 0.000000000000D+00-0.419095158577D-08 0.690000000000D+02
    0.374418000000D+06 0.400000000000D+01 0.000000000000D+00 0.000000000000D+00
28 12  1  5 10  0  0.0 0.997660681605D-04 0.363797880709D-11 0.000000000000D+00
    0.350000000000D+02-0.969375000000D+02 0.383087384037D-08-0.306104394088D+01
   -0.509805977344D-05 0.177462927532D-01 0.982359051704D-05 0.515371605682D+04
    0.381600000000D+06 0.232830643654D-06-0.646007362834D+00-0.143423676491D-06
    0.977445063219D+00 0.194750000000D+03-0.185808979827D+01-0.738673611167D-08
    0.185364862348D-09 0.100000000000D+01 0.166900000000D+04 0.000000000000D+00
    0.200000000000D+01 0.000000000000D+00-0.107102096081D-07 0.350000000000D+02
    0.375018000000D+06 0.400000000000D+01 0.000000000000D+00 0.000000000000D+00
29 12  1  5 10  0  0.0 0.272314064205D-03 0.341060513165D-11 0.000000000000D+00
    0.900000000000D+01-0.150000000000D+01 0.466448000860D-08-0.896325373584D+00
   -0.316649675369D-07 0.215090042911D-02 0.783428549767D-05 0.515365357590D+04
    0.381600000000D+06-0.223517417908D-07 0.396513972673D+00-0.894069671631D-07
    0.962946746300D+00 0.227218750000D+03-0.119050139332D+01-0.798854704076D-08
    0.416803075807D-09 0.000000000000D+00 0.166900000000D+04 0.000000000000D+00
    0.200000000000D+01 0.000000000000D+00-0.931322574616D-08 0.900000000000D+01
    0.374400000000D+06 0.400000000000D+01 0.000000000000D+00 0.000000000000D+00
31 12  1  5 10  0  0.0 0.191635917872D-03 0.488853402203D-11 0.000000000000D+00
    0.260000000000D+02-0.476875000000D+02 0.423410493889D-08-0.231837971679D+00
   -0.268965959549D-05 0.801640178543D-02 0.228360295296D-05 0.515355868912D+04
    0.381600000000D+06-0.651925802231D-07-0.172482059304D+01-0.154599547386D-06
    0.980383929589D+00 0.343312500000D+03-0.934095482632D+00-0.822962851135D-08
   -0.292869342041D-10 0.000000000000D+00 0.166900000000D+04 0.000000000000D+00
    0.200000000000D+01 0.000000000000D+00-0.130385160446D-07 0.260000000000D+02
    0.374400000000D+06 0.400000000000D+01 0.000000000000D+00 0.000000000000D+00
